NORAD_CAT_ID,OBJECT_NAME,OBJECT_TYPE,EPOCH,MEAN_MOTION,ECCENTRICITY,INCLINATION,RA_OF_ASC_NODE,ARG_OF_PERICENTER,MEAN_ANOMALY,BSTAR,MEAN_MOTION_DOT,MEAN_MOTION_DDOT,TLE_LINE0,TLE_LINE1,TLE_LINE2,SEMIMAJOR_AXIS,PERIOD,APOGEE,PERIGEE,DECAYED
55270.0,STARLINK-5301,PAYLOAD,2023-10-02 07:47:01,14.98331538,0.0002895,69.9992,127.0257,272.3067,87.776,1.3204e-05,6.5e-07,0.0,0 STARLINK-5301,1 55270U 23010B   23275.32431841  .00000065  00000-0  13204-4 0  9995,2 55270  69.9992 127.0257 0002895 272.3067  87.7760 14.98331538 39259,6950.188,96.107,574.065,570.041,0.0
55270.0,STARLINK-5301,PAYLOAD,2023-10-02 20:36:05,14.98327503,0.0002902,69.9989,125.6778,266.9857,93.097,6.4634e-05,6.78e-06,0.0,0 STARLINK-5301,1 55270U 23010B   23275.85840009  .00000678  00000-0  64634-4 0  9996,2 55270  69.9989 125.6778 0002902 266.9857  93.0970 14.98327503 39645,6950.201,96.107,574.083,570.049,0.0
55270.0,STARLINK-5301,PAYLOAD,2023-10-03 07:49:02,14.98325042,0.0002883,69.9989,124.4997,267.3551,92.7278,4.4372e-05,4.36e-06,0.0,0 STARLINK-5301,1 55270U 23010B   23276.32572339  .00000436  00000-0  44372-4 0  9996,2 55270  69.9989 124.4997 0002883 267.3551  92.7278 14.98325042 39406,6950.208,96.107,574.077,570.069,0.0
55270.0,STARLINK-5301,PAYLOAD,2023-10-03 20:38:07,14.98326047,0.0002881,69.9988,123.1529,266.9594,93.1235,-6.2866e-05,-8.43e-06,0.0,0 STARLINK-5301,1 55270U 23010B   23276.85980591 -.00000843  00000-0 -62866-4 0  9999,2 55270  69.9988 123.1529 0002881 266.9594  93.1235 14.98326047 39798,6950.205,96.107,574.072,570.068,0.0
55270.0,STARLINK-5301,PAYLOAD,2023-10-04 14:15:35,14.98330553,0.0002995,69.9986,121.3018,267.6813,92.4003,9.7425e-05,1.07e-05,0.0,0 STARLINK-5301,1 55270U 23010B   23277.59416011  .00001070  00000-0  97425-4 0  9992,2 55270  69.9986 121.3018 0002995 267.6813  92.4003 14.98330553 39902,6950.191,96.107,574.138,569.975,0.0
55270.0,STARLINK-5301,PAYLOAD,2023-10-04 19:03:59,14.98331547,0.0003107,69.9985,120.7961,266.6025,93.4778,0.00010861,1.203e-05,0.0,0 STARLINK-5301,1 55270U 23010B   23277.79443911  .00001203  00000-0  10861-3 0  9999,2 55270  69.9985 120.7961 0003107 266.6025  93.4778 14.98331547 39624,6950.188,96.107,574.213,569.894,0.0
55270.0,STARLINK-5301,PAYLOAD,2023-10-04 20:40:07,14.9833449,0.0003029,69.9986,120.6282,269.5551,90.5261,0.00013078,1.468e-05,0.0,0 STARLINK-5301,1 55270U 23010B   23277.86119700  .00001468  00000-0  13078-3 0  9999,2 55270  69.9986 120.6282 0003029 269.5551  90.5261 14.98334490 39949,6950.179,96.107,574.149,569.939,0.0
55270.0,STARLINK-5301,PAYLOAD,2023-10-05 14:17:36,14.98330445,0.0003058,69.9985,118.7768,269.1118,90.969,0.00015678,1.778e-05,0.0,0 STARLINK-5301,1 55270U 23010B   23278.59555865  .00001778  00000-0  15678-3 0  9998,2 55270  69.9985 118.7768 0003058 269.1118  90.9690 14.98330445 40052,6950.192,96.107,574.182,569.931,0.0
55270.0,STARLINK-5301,PAYLOAD,2023-10-05 20:42:08,14.98333654,0.0002876,69.9985,118.1035,260.1862,99.8972,0.00013488,1.517e-05,0.0,0 STARLINK-5301,1 55270U 23010B   23278.86259648  .00001517  00000-0  13488-3 0  9996,2 55270  69.9985 118.1035 0002876 260.1862  99.8972 14.98333654 39781,6950.182,96.107,574.045,570.048,0.0
55270.0,STARLINK-5301,PAYLOAD,2023-10-06 14:19:37,14.98333903,0.0003073,69.9986,116.2523,270.7892,89.2915,-3.2714e-05,-4.83e-06,0.0,0 STARLINK-5301,1 55270U 23010B   23279.59696005 -.00000483  00000-0 -32714-4 0  9996,2 55270  69.9986 116.2523 0003073 270.7892  89.2915 14.98333903 40209,6950.181,96.107,574.182,569.91,0.0
55270.0,STARLINK-5301,PAYLOAD,2023-10-06 20:44:09,14.9832775,0.0003137,69.9988,115.5788,268.6758,91.4042,4.3764e-05,4.29e-06,0.0,0 STARLINK-5301,1 55270U 23010B   23279.86400112  .00000429  00000-0  43764-4 0  9993,2 55270  69.9988 115.5788 0003137 268.6758  91.4042 14.98327750 39931,6950.2,96.107,574.245,569.885,0.0
55270.0,STARLINK-5301,PAYLOAD,2023-10-06 22:20:17,14.98331892,0.0002992,69.9987,115.4107,266.8383,93.2434,-2.6944e-05,-4.15e-06,0.0,0 STARLINK-5301,1 55270U 23010B   23279.93076005 -.00000415  00000-0 -26944-4 0  9999,2 55270  69.9987 115.4107 0002992 266.8383  93.2434 14.98331892 40250,6950.187,96.107,574.132,569.973,0.0
55270.0,STARLINK-5301,PAYLOAD,2023-10-07 14:21:37,14.98335311,0.0002891,69.9988,113.7273,266.5085,93.5743,1.8472e-05,1.27e-06,0.0,0 STARLINK-5301,1 55270U 23010B   23280.59835566  .00000127  00000-0  18472-4 0  9993,2 55270  69.9988 113.7273 0002891 266.5085  93.5743 14.98335311 40357,6950.176,96.107,574.051,570.032,0.0
55270.0,STARLINK-5301,PAYLOAD,2023-10-07 19:10:02,14.98334604,0.0002916,69.9988,113.2222,266.8696,93.213,1.7385e-05,1.14e-06,0.0,0 STARLINK-5301,1 55270U 23010B   23280.79863552  .00000114  00000-0  17385-4 0  9999,2 55270  69.9988 113.2222 0002916 266.8696  93.2130 14.98334604 40075,6950.179,96.107,574.07,570.017,0.0
55270.0,STARLINK-5301,PAYLOAD,2023-10-07 20:46:10,14.9833419,0.000292,69.9988,113.0538,266.6785,93.404,1.2689e-05,5.8e-07,0.0,0 STARLINK-5301,1 55270U 23010B   23280.86539574  .00000058  00000-0  12689-4 0  9990,2 55270  69.9988 113.0538 0002920 266.6785  93.4040 14.98334190 40392,6950.18,96.107,574.074,570.015,0.0
55270.0,STARLINK-5301,PAYLOAD,2023-10-08 12:47:30,14.98329953,0.0003099,69.9984,111.3701,268.9879,91.0925,5.2645e-05,5.35e-06,0.0,0 STARLINK-5301,1 55270U 23010B   23281.53299649  .00000535  00000-0  52645-4 0  9997,2 55270  69.9984 111.3701 0003099 268.9879  91.0925 14.98329953 40496,6950.193,96.107,574.212,569.904,0.0
55270.0,STARLINK-5301,PAYLOAD,2023-10-08 19:12:02,14.98332034,0.0003083,69.9985,110.6971,269.5732,90.5074,7.4227e-05,7.93e-06,0.0,0 STARLINK-5301,1 55270U 23010B   23281.80003466  .00000793  00000-0  74227-4 0  9993,2 55270  69.9985 110.6971 0003083 269.5732  90.5074 14.98332034 40220,6950.187,96.107,574.194,569.909,0.0
55270.0,STARLINK-5301,PAYLOAD,2023-10-08 20:48:11,14.98332649,0.0003075,69.9985,110.5288,269.709,90.3717,8.0291e-05,8.65e-06,0.0,0 STARLINK-5301,1 55270U 23010B   23281.86679405  .00000865  00000-0  80291-4 0  9999,2 55270  69.9985 110.5288 0003075 269.7090  90.3717 14.98332649 40549,6950.185,96.107,574.187,569.913,0.0
55270.0,STARLINK-5301,PAYLOAD,2023-10-09 12:49:31,14.98332051,0.0003048,69.9986,108.8454,269.8731,90.2079,9.6756e-06,2.2e-07,0.0,0 STARLINK-5301,1 55270U 23010B   23282.53439591  .00000022  00000-0  96756-5 0  9993,2 55270  69.9986 108.8454 0003048 269.8731  90.2079 14.98332051 40646,6950.187,96.107,574.17,569.933,0.0
55270.0,STARLINK-5301,PAYLOAD,2023-10-09 20:50:11,14.9833452,0.0003028,69.9984,108.0036,269.6852,90.396,3.6619e-05,3.44e-06,0.0,0 STARLINK-5301,1 55270U 23010B   23282.86819309  .00000344  00000-0  36619-4 0  9996,2 55270  69.9984 108.0036 0003028 269.6852  90.3960 14.98334520 40690,6950.179,96.107,574.148,569.939,0.0
55270.0,STARLINK-5301,PAYLOAD,2023-10-09 22:26:19,14.98334205,0.0003028,69.9984,107.835,269.7304,90.3508,3.3819e-05,3.11e-06,0.0,0 STARLINK-5301,1 55270U 23010B   23282.93495324  .00000311  00000-0  33819-4 0  9994,2 55270  69.9984 107.8350 0003028 269.7304  90.3508 14.98334205 40394,6950.18,96.107,574.149,569.94,0.0
55270.0,STARLINK-5301,PAYLOAD,2023-10-10 12:51:32,14.98337222,0.00028,69.9984,106.32,270.9253,89.1585,-3.413e-05,-5e-06,0.0,0 STARLINK-5301,1 55270U 23010B   23283.53579272 -.00000500  00000-0 -34130-4 0  9995,2 55270  69.9984 106.3200 0002800 270.9253  89.1585 14.98337222 40793,6950.171,96.107,573.982,570.09,0.0
55270.0,STARLINK-5301,PAYLOAD,2023-10-10 20:52:12,14.98331999,0.0002889,69.9985,105.4787,269.3487,90.7341,5.9662e-05,6.19e-06,0.0,0 STARLINK-5301,1 55270U 23010B   23283.86959265  .00000619  00000-0  59662-4 0  9991,2 55270  69.9985 105.4787 0002889 269.3487  90.7341 14.98331999 40841,6950.187,96.107,574.06,570.044,0.0
55270.0,STARLINK-5301,PAYLOAD,2023-10-10 22:28:20,14.98331215,0.0002954,69.9986,105.3103,270.2382,89.8439,9.4255e-05,1.032e-05,0.0,0 STARLINK-5301,1 55270U 23010B   23283.93635230  .00001032  00000-0  94255-4 0  9999,2 55270  69.9986 105.3103 0002954 270.2382  89.8439 14.98331215 40546,6950.189,96.107,574.107,570.001,0.0
55270.0,STARLINK-5301,PAYLOAD,2023-10-11 12:53:33,14.98331203,0.0002924,69.9987,103.7953,270.6568,89.4256,3.1113e-05,2.78e-06,0.0,0 STARLINK-5301,1 55270U 23010B   23284.53719348  .00000278  00000-0  31113-4 0  9994,2 55270  69.9987 103.7953 0002924 270.6568  89.4256 14.98331203 40943,6950.189,96.107,574.086,570.022,0.0
55270.0,STARLINK-5301,PAYLOAD,2023-10-12 04:54:54,14.98329487,0.0002912,69.9989,102.1119,272.0725,88.0101,2.9304e-06,-5.8e-07,0.0,0 STARLINK-5301,1 55270U 23010B   23285.20479501 -.00000058  00000-0  29304-5 0  9990,2 55270  69.9989 102.1119 0002912 272.0725  88.0101 14.98329487 40732,6950.194,96.107,574.083,570.036,0.0
55270.0,STARLINK-5301,PAYLOAD,2023-10-12 12:55:34,14.98331075,0.0002935,69.999,101.2702,271.959,88.1233,2.7414e-05,2.34e-06,0.0,0 STARLINK-5301,1 55270U 23010B   23285.53859331  .00000234  00000-0  27414-4 0  9993,2 55270  69.9990 101.2702 0002935 271.9590  88.1233 14.98331075 41098,6950.19,96.107,574.094,570.015,0.0
55270.0,STARLINK-5301,PAYLOAD,2023-10-12 20:56:14,14.98330333,0.0002969,69.9991,100.4288,270.3511,89.7307,1.628e-05,1.01e-06,0.0,0 STARLINK-5301,1 55270U 23010B   23285.87239371  .00000101  00000-0  16280-4 0  9998,2 55270  69.9991 100.4288 0002969 270.3511  89.7307 14.98330333 41143,6950.192,96.107,574.12,569.993,0.0
55270.0,STARLINK-5301,PAYLOAD,2023-10-13 12:57:35,14.9833194,0.0002989,69.9991,98.7452,269.4892,90.5925,7.5877e-05,8.12e-06,0.0,0 STARLINK-5301,1 55270U 23010B   23286.53999078  .00000812  00000-0  75877-4 0  9995,2 55270  69.9991  98.7452 0002989 269.4892  90.5925 14.98331940 40935,6950.187,96.107,574.129,569.974,0.0
55270.0,STARLINK-5301,PAYLOAD,2023-10-13 14:33:43,14.98332059,0.0002992,69.9991,98.5768,269.4754,90.6062,7.6314e-05,8.18e-06,0.0,0 STARLINK-5301,1 55270U 23010B   23286.60675064  .00000818  00000-0  76314-4 0  9992,2 55270  69.9991  98.5768 0002992 269.4754  90.6062 14.98332059 41255,6950.187,96.107,574.131,569.972,0.0
